{
  "type": "FeatureCollection",
  "features": [
    {
      "type": "Feature",
      "properties": { "name": "M2 Metro (Yenikapı–Hacıosman)", "color": "#2c7a5a" },
      "geometry": {
        "type": "LineString",
        "coordinates": [
          [28.9551, 41.0097],
          [28.9603, 41.0097],
          [28.9671, 41.0120],
          [28.9701, 41.0138],
          [28.9736, 41.0196],
          [28.9776, 41.0255],
          [28.9814, 41.0308],
          [28.9842, 41.0350],
          [28.9847, 41.0379],
          [28.9850, 41.0425],
          [28.9870, 41.0468],
          [28.9916, 41.0522]
        ]
      }
    },
    {
      "type": "Feature",
      "properties": { "name": "M2 Metro", "color": "#2c7a5a" },
      "geometry": {
        "type": "LineString",
        "coordinates": [
          [28.9847, 41.0379],
          [28.9858, 41.0420],
          [28.9840, 41.0485],
          [28.9825, 41.0555],
          [28.9810, 41.0625]
        ]
      }
    }
  ]
}
