{
  "type": "FeatureCollection",
  "features": [
    {
      "type": "Feature",
      "properties": { "name": "T1 Tram (Kabataş–Bağcılar)", "color": "#c83a4d" },
      "geometry": {
        "type": "LineString",
        "coordinates": [
          [28.9933, 41.0276],
          [28.9906, 41.0255],
          [28.9855, 41.0226],
          [28.9798, 41.0195],
          [28.9744, 41.0170],
          [28.9711, 41.0166],
          [28.9683, 41.0149],
          [28.9706, 41.0166],
          [28.9701, 41.0138],
          [28.9724, 41.0120],
          [28.9752, 41.0093],
          [28.9784, 41.0086],
          [28.9768, 41.0054],
          [28.9744, 41.0010],
          [28.9752, 40.9950],
          [28.9738, 40.9895],
          [28.9705, 40.9840]
        ]
      }
    }
  ]
}
